NORAD_CAT_ID,OBJECT_NAME,OBJECT_TYPE,EPOCH,MEAN_MOTION,ECCENTRICITY,INCLINATION,RA_OF_ASC_NODE,ARG_OF_PERICENTER,MEAN_ANOMALY,BSTAR,MEAN_MOTION_DOT,MEAN_MOTION_DDOT,TLE_LINE0,TLE_LINE1,TLE_LINE2,SEMIMAJOR_AXIS,PERIOD,APOGEE,PERIGEE,DECAYED
53840.0,STARLINK-4766,PAYLOAD,2023-04-27 20:24:57,15.08862083,0.0001192,53.2173,313.6258,50.3778,309.7319,0.00086488,0.00013512,0.0,0 STARLINK-4766,1 53840U 22114Y   23117.85066782  .00013512  00000-0  86488-3 0  9995,2 53840  53.2173 313.6258 0001192  50.3778 309.7319 15.08862083 34396,6917.813,95.436,540.502,538.853,0.0
53840.0,STARLINK-4766,PAYLOAD,2023-04-28 05:57:16,15.08853346,0.000115,53.2154,311.8398,49.0049,311.1043,1.7315e-05,-1.2e-07,0.0,0 STARLINK-4766,1 53840U 22114Y   23118.24810215 -.00000012  00000-0  17315-4 0  9993,2 53840  53.2154 311.8398 0001150  49.0049 311.1043 15.08853346 34450,6917.84,95.437,540.5,538.909,0.0
53840.0,STARLINK-4766,PAYLOAD,2023-04-29 05:48:02,15.08844794,0.0001342,53.215,307.38,57.1047,303.0074,-0.0001098,-2.035e-05,0.0,0 STARLINK-4766,1 53840U 22114Y   23119.24169900 -.00002035  00000-0 -10980-3 0  9990,2 53840  53.2150 307.3800 0001342  57.1047 303.0074 15.08844794 34603,6917.866,95.437,540.659,538.802,0.0
53840.0,STARLINK-4766,PAYLOAD,2023-04-30 12:00:25,15.08796621,0.0001746,53.2158,301.7324,68.2905,291.8273,0.0014567,0.00022944,0.0,0 STARLINK-4766,1 53840U 22114Y   23120.50029652  .00022944  00000-0  14567-2 0  9993,2 53840  53.2158 301.7324 0001746  68.2905 291.8273 15.08796621 34794,6918.013,95.44,541.086,538.67,0.0
53840.0,STARLINK-4766,PAYLOAD,2023-04-30 16:46:32,15.08835282,0.0001281,53.216,300.8399,54.4486,305.6625,0.00012948,1.773e-05,0.0,0 STARLINK-4766,1 53840U 22114Y   23120.69898638  .00001773  00000-0  12948-3 0  9990,2 53840  53.2160 300.8399 0001281  54.4486 305.6625 15.08835282 34820,6917.895,95.438,540.646,538.874,0.0
53840.0,STARLINK-4766,PAYLOAD,2023-05-01 11:51:10,15.08838095,0.0001612,53.2156,297.2704,56.891,303.2237,0.00011488,1.541e-05,0.0,0 STARLINK-4766,1 53840U 22114Y   23121.49386700  .00001541  00000-0  11488-3 0  9992,2 53840  53.2156 297.2704 0001612  56.8910 303.2237 15.08838095 35481,6917.886,95.438,540.866,538.636,0.0
53840.0,STARLINK-4766,PAYLOAD,2023-05-01 18:12:42,15.08841045,0.0001175,53.2155,296.0805,67.6072,292.5045,9.204e-05,1.177e-05,0.0,0 STARLINK-4766,1 53840U 22114Y   23121.75882442  .00001177  00000-0  92040-4 0  9994,2 53840  53.2155 296.0805 0001175  67.6072 292.5045 15.08841045 35523,6917.877,95.437,540.555,538.929,0.0
53840.0,STARLINK-4766,PAYLOAD,2023-05-01 21:23:28,15.08845937,0.000114,53.216,295.4854,72.5711,287.5406,0.00014668,2.048e-05,0.0,0 STARLINK-4766,1 53840U 22114Y   23121.89130184  .00002048  00000-0  14668-3 0  9995,2 53840  53.2160 295.4854 0001140  72.5711 287.5406 15.08845937 35005,6917.862,95.437,540.516,538.939,0.0
53840.0,STARLINK-4766,PAYLOAD,2023-05-02 14:52:43,15.08843393,0.0001086,53.2158,292.2146,64.7308,295.3796,0.00014221,1.976e-05,0.0,0 STARLINK-4766,1 53840U 22114Y   23122.61994248  .00001976  00000-0  14221-3 0  9999,2 53840  53.2158 292.2146 0001086  64.7308 295.3796 15.08843393 35659,6917.87,95.437,540.486,538.984,0.0
53840.0,STARLINK-4766,PAYLOAD,2023-05-02 18:03:29,15.08848737,0.0001054,53.2161,291.6199,72.7098,287.401,0.00020786,3.023e-05,0.0,0 STARLINK-4766,1 53840U 22114Y   23122.75241938  .00003023  00000-0  20786-3 0  9993,2 53840  53.2161 291.6199 0001054  72.7098 287.4010 15.08848737 35674,6917.854,95.437,540.448,538.99,0.0
53840.0,STARLINK-4766,PAYLOAD,2023-05-03 11:32:44,15.08833061,0.0001012,53.2164,288.3484,84.8418,275.2689,-8.0649e-06,-4.16e-06,0.0,0 STARLINK-4766,1 53840U 22114Y   23123.48106747 -.00000416  00000-0 -80649-5 0  9993,2 53840  53.2164 288.3484 0001012  84.8418 275.2689 15.08833061 35245,6917.902,95.438,540.467,539.067,0.0
53840.0,STARLINK-4766,PAYLOAD,2023-05-03 21:05:02,15.08842261,0.0001011,53.216,286.5633,78.9503,281.1603,8.593e-05,1.08e-05,0.0,0 STARLINK-4766,1 53840U 22114Y   23123.87850308  .00001080  00000-0  85930-4 0  9998,2 53840  53.2160 286.5633 0001011  78.9503 281.1603 15.08842261 35845,6917.873,95.437,540.438,539.039,0.0
53840.0,STARLINK-4766,PAYLOAD,2023-05-04 12:58:54,15.08842946,9.3e-05,53.215,283.5883,83.5527,276.5571,0.00010609,1.401e-05,0.0,0 STARLINK-4766,1 53840U 22114Y   23124.54090377  .00001401  00000-0  10609-3 0  9992,2 53840  53.2150 283.5883 0000930  83.5527 276.5571 15.08842946 35948,6917.871,95.437,540.38,539.093,0.0
53840.0,STARLINK-4766,PAYLOAD,2023-05-04 14:34:17,15.08844904,9.26e-05,53.2153,283.2915,79.2974,280.8122,0.00016059,2.269e-05,0.0,0 STARLINK-4766,1 53840U 22114Y   23124.60714344  .00002269  00000-0  16059-3 0  9994,2 53840  53.2153 283.2915 0000926  79.2974 280.8122 15.08844904 35415,6917.865,95.437,540.371,539.09,0.0
53840.0,STARLINK-4766,PAYLOAD,2023-05-04 20:55:49,15.08853882,9.62e-05,53.2159,282.1017,83.3579,276.7523,0.00046925,7.191e-05,0.0,0 STARLINK-4766,1 53840U 22114Y   23124.87210082  .00007191  00000-0  46925-3 0  9997,2 53840  53.2159 282.1017 0000962  83.3579 276.7523 15.08853882 35996,6917.838,95.437,540.368,539.037,0.0
53840.0,STARLINK-4766,PAYLOAD,2023-05-05 16:00:27,15.08836036,0.0001106,53.2158,278.5337,79.8344,280.2773,2.5677e-05,1.21e-06,0.0,0 STARLINK-4766,1 53840U 22114Y   23125.66698840  .00000121  00000-0  25677-4 0  9995,2 53840  53.2158 278.5337 0001106  79.8344 280.2773 15.08836036 35573,6917.893,95.438,540.523,538.992,0.0
53840.0,STARLINK-4766,PAYLOAD,2023-05-05 19:11:13,15.08840959,0.0001165,53.2161,277.9392,78.7821,281.3302,0.00012307,1.671e-05,0.0,0 STARLINK-4766,1 53840U 22114Y   23125.79946749  .00001671  00000-0  12307-3 0  9999,2 53840  53.2161 277.9392 0001165  78.7821 281.3302 15.08840959 36136,6917.877,95.437,540.548,538.937,0.0
53840.0,STARLINK-4766,PAYLOAD,2023-05-06 12:40:28,15.088438,0.0001128,53.215,274.6685,87.0138,273.0983,0.00020185,2.926e-05,0.0,0 STARLINK-4766,1 53840U 22114Y   23126.52810799  .00002926  00000-0  20185-3 0  9993,2 53840  53.2150 274.6685 0001128  87.0138 273.0983 15.08843800 36249,6917.869,95.437,540.514,538.953,0.0
53840.0,STARLINK-4766,PAYLOAD,2023-05-07 02:58:56,15.08837504,0.0001015,53.2161,271.9867,87.3521,272.7588,0.00010986,1.461e-05,0.0,0 STARLINK-4766,1 53840U 22114Y   23127.12426823  .00001461  00000-0  10986-3 0  9992,2 53840  53.2161 271.9867 0001015  87.3521 272.7588 15.08837504 35797,6917.888,95.438,540.455,539.051,0.0
53840.0,STARLINK-4766,PAYLOAD,2023-05-07 14:06:39,15.08835859,0.000101,53.2151,269.9108,73.1621,286.9482,7.6104e-05,9.24e-06,0.0,0 STARLINK-4766,1 53840U 22114Y   23127.58795184  .00000924  00000-0  76104-4 0  9999,2 53840  53.2151 269.9108 0001010  73.1621 286.9482 15.08835859 36400,6917.893,95.438,540.457,539.059,0.0
53840.0,STARLINK-4766,PAYLOAD,2023-05-07 15:42:02,15.08838128,0.0001063,53.2143,269.6134,73.0148,287.096,0.00012236,1.66e-05,0.0,0 STARLINK-4766,1 53840U 22114Y   23127.65419143  .00001660  00000-0  12236-3 0  9998,2 53840  53.2143 269.6134 0001063  73.0148 287.0960 15.08838128 36414,6917.886,95.438,540.486,539.016,0.0
53840.0,STARLINK-4766,PAYLOAD,2023-05-08 12:22:02,15.08846045,0.0001155,53.2141,265.7478,70.4816,289.6301,0.00026905,3.997e-05,0.0,0 STARLINK-4766,1 53840U 22114Y   23128.51531054  .00003997  00000-0  26905-3 0  9993,2 53840  53.2141 265.7478 0001155  70.4816 289.6301 15.08846045 36004,6917.862,95.437,540.526,538.928,0.0
53840.0,STARLINK-4766,PAYLOAD,2023-05-08 18:43:35,15.08858459,0.0001192,53.2147,264.5573,74.8497,285.2627,0.00058643,9.062e-05,0.0,0 STARLINK-4766,1 53840U 22114Y   23128.78026641  .00009062  00000-0  58643-3 0  9996,2 53840  53.2147 264.5573 0001192  74.8497 285.2627 15.08858459 36585,6917.824,95.436,540.514,538.864,0.0
53840.0,STARLINK-4766,PAYLOAD,2023-05-09 13:48:13,15.08842265,0.0001067,53.2149,260.9886,81.8797,278.2316,0.00020084,2.91e-05,0.0,0 STARLINK-4766,1 53840U 22114Y   23129.57515151  .00002910  00000-0  20084-3 0  9996,2 53840  53.2149 260.9886 0001067  81.8797 278.2316 15.08842265 36705,6917.873,95.437,540.477,539.0,0.0
53840.0,STARLINK-4766,PAYLOAD,2023-05-10 12:03:37,15.08837395,0.000114,53.2164,256.827,82.7071,277.4051,0.00015263,2.142e-05,0.0,0 STARLINK-4766,1 53840U 22114Y   23130.50251522  .00002142  00000-0  15263-3 0  9990,2 53840  53.2164 256.8270 0001140  82.7071 277.4051 15.08837395 36840,6917.888,95.438,540.542,538.965,0.0
53840.0,STARLINK-4766,PAYLOAD,2023-05-10 18:25:09,15.08854,0.0001092,53.2154,255.6371,76.5002,283.6111,0.0005418,8.349e-05,0.0,0 STARLINK-4766,1 53840U 22114Y   23130.76746907  .00008349  00000-0  54180-3 0  9990,2 53840  53.2154 255.6371 0001092  76.5002 283.6111 15.08854000 36342,6917.838,95.437,540.458,538.947,0.0
53840.0,STARLINK-4766,PAYLOAD,2023-05-11 00:46:42,15.08836617,0.0001056,53.2164,254.4461,87.9249,272.1864,0.00019649,2.84e-05,0.0,0 STARLINK-4766,1 53840U 22114Y   23131.03243451  .00002840  00000-0  19649-3 0  9998,2 53840  53.2164 254.4461 0001056  87.9249 272.1864 15.08836617 36385,6917.891,95.438,540.486,539.025,0.0
53840.0,STARLINK-4766,PAYLOAD,2023-05-11 15:05:10,15.08846214,0.0001168,53.2162,251.7725,84.7073,275.4052,0.00020894,3.04e-05,0.0,0 STARLINK-4766,1 53840U 22114Y   23131.62859219  .00003040  00000-0  20894-3 0  9995,2 53840  53.2162 251.7725 0001168  84.7073 275.4052 15.08846214 37010,6917.861,95.437,540.534,538.918,0.0
53840.0,STARLINK-4766,PAYLOAD,2023-05-12 00:37:29,15.08843125,0.0001131,53.2157,249.9844,82.685,277.4271,0.00014725,2.057e-05,0.0,0 STARLINK-4766,1 53840U 22114Y   23132.02603278  .00002057  00000-0  14725-3 0  9995,2 53840  53.2157 249.9844 0001131  82.6850 277.4271 15.08843125 37074,6917.871,95.437,540.518,538.953,0.0
53840.0,STARLINK-4766,PAYLOAD,2023-05-13 13:11:21,15.08854195,0.0001679,53.2155,243.1484,142.9228,217.1881,0.00027652,4.117e-05,0.0,0 STARLINK-4766,1 53840U 22114Y   23133.54955889  .00004117  00000-0  27652-3 0  9993,2 53840  53.2155 243.1484 0001679 142.9228 217.1881 15.08854195 37307,6917.837,95.437,540.864,538.54,0.0
